[{"OBJECT_NAME":"STARLINK-34959","OBJECT_ID":"2025-179M","EPOCH":"2026-03-09T16:38:13.453728","MEAN_MOTION":15.05647685,"ECCENTRICITY":5.195e-5,"INCLINATION":97.6022,"RA_OF_ASC_NODE":112.8869,"ARG_OF_PERICENTER":150.1966,"MEAN_ANOMALY":209.9291,"EPHEMERIS_TYPE":0,"CLASSIFICATION_TYPE":"U","NORAD_CAT_ID":65246,"ELEMENT_SET_NO":999,"REV_AT_EPOCH":3182,"BSTAR":8.6911505e-5,"MEAN_MOTION_DOT":1.193e-5,"MEAN_MOTION_DDOT":0},{"OBJECT_NAME":"JIELONG-3 R\/B","OBJECT_ID":"2023-190C","EPOCH":"2026-03-09T21:26:26.113920","MEAN_MOTION":15.18151254,"ECCENTRICITY":0.02497151,"INCLINATION":86.5597,"RA_OF_ASC_NODE":295.7177,"ARG_OF_PERICENTER":271.8036,"MEAN_ANOMALY":85.4623,"EPHEMERIS_TYPE":0,"CLASSIFICATION_TYPE":"U","NORAD_CAT_ID":58507,"ELEMENT_SET_NO":999,"REV_AT_EPOCH":12333,"BSTAR":0.00045620602,"MEAN_MOTION_DOT":0.00021606,"MEAN_MOTION_DDOT":0}]
